IRIDIUM 112             
1 41925U 17003J   23343.39841216  .00000292  00000+0  97235-4 0  9993
2 41925  86.3957 113.1514 0001852  96.8251 263.3156 14.34215981361299
IRIDIUM 111             
1 41926U 17003K   23343.45549035  .00000297  00000+0  99026-4 0  9990
2 41926  86.3960 113.1780 0002257 100.2588 259.8862 14.34218618361285
IRIDIUM 113             
1 42803U 17039A   23343.50522264  .00000309  00000+0  10327-3 0  9995
2 42803  86.3970 346.9093 0002104  98.6212 261.5223 14.34219695339225
IRIDIUM 123             
1 42804U 17039B   23342.50016792  .00000257  00000+0  84878-4 0  9994
2 42804  86.3983  18.8202 0002164  98.3061 261.8381 14.34220563337842
IRIDIUM 120             
1 42805U 17039C   23343.49888415  .00000303  00000+0  10113-3 0  9995
2 42805  86.3958 346.8139 0002175  93.2355 266.9090 14.34217476339215
IRIDIUM 115             
1 42806U 17039D   23343.54360071  .00000363  00000+0  10194-3 0  9990
2 42806  86.4495 346.7915 0002250  95.4871 264.6587 14.43252573341479
IRIDIUM 118             
1 42807U 17039E   23343.50864652  .00000231  00000+0  75414-4 0  9992
2 42807  86.3984  18.4010 0002171  96.2394 263.9049 14.34217118337984
IRIDIUM 117             
1 42808U 17039F   23343.52767253  .00000144  00000+0  44208-4 0  9994
2 42808  86.3985  18.3591 0002278  96.4423 263.7032 14.34217432338016
